<?xml version="1.0"?>
<gpx xmlns:xsd="http://www.w3.org/2001/XMLSchema" xmlns:xsi="http://www.w3.org/2001/XMLSchema-instance" xsi:schemaLocation="http://www.topografix.com/GPX/1/1 http://www.topografix.com/GPX/1/1/gpx.xsd" version="1.1" creator="http://www.delorme.com" xmlns="http://www.topografix.com/GPX/1/1">
  <wpt lat="41.489762" lon="-81.701457">
    <ele>171.400</ele>
    <time>2025-09-29T18:09:35Z</time>
    <name>29-Sep 2:09p</name>
    <desc />
  </wpt>
  <wpt lat="41.489841" lon="-81.701695">
    <ele>170.400</ele>
    <time>2025-09-29T18:11:01Z</time>
    <name>29-Sep 2:11p</name>
    <desc />
  </wpt>
  <wpt lat="41.489211" lon="-81.701614">
    <ele>170.599</ele>
    <time>2025-09-29T18:11:52Z</time>
    <name>29-Sep 2:11p</name>
    <desc />
  </wpt>
  <wpt lat="41.489044" lon="-81.700565">
    <ele>183.599</ele>
    <time>2025-09-29T18:13:20Z</time>
    <name>29-Sep 2:13p</name>
    <desc />
  </wpt>
  <wpt lat="41.487800" lon="-81.700582">
    <ele>170.799</ele>
    <time>2025-09-29T18:14:47Z</time>
    <name>29-Sep 2:14p</name>
    <desc />
  </wpt>
  <wpt lat="41.487805" lon="-81.699759">
    <ele>185.799</ele>
    <time>2025-09-29T18:16:21Z</time>
    <name>29-Sep 2:16p</name>
    <desc />
  </wpt>
  <wpt lat="41.488334" lon="-81.698277">
    <ele>183.799</ele>
    <time>2025-09-29T18:17:45Z</time>
    <name>29-Sep 2:17p</name>
    <desc />
  </wpt>
  <wpt lat="41.488307" lon="-81.696376">
    <ele>184.400</ele>
    <time>2025-09-29T18:18:50Z</time>
    <name>29-Sep 2:18p</name>
    <desc />
  </wpt>
  <wpt lat="41.487690" lon="-81.695091">
    <ele>191.200</ele>
    <time>2025-09-29T18:20:08Z</time>
    <name>29-Sep 2:20p</name>
    <desc />
  </wpt>
  <wpt lat="41.486618" lon="-81.693590">
    <ele>182.200</ele>
    <time>2025-09-29T18:21:25Z</time>
    <name>29-Sep 2:21p</name>
    <desc />
  </wpt>
  <wpt lat="41.486031" lon="-81.692316">
    <ele>184.000</ele>
    <time>2025-09-29T18:22:45Z</time>
    <name>29-Sep 2:22p</name>
    <desc />
  </wpt>
  <wpt lat="41.486031" lon="-81.692316">
    <ele>184.000</ele>
    <time>2025-09-29T18:22:53Z</time>
    <name>29-Sep 2:22p</name>
    <desc />
  </wpt>
  <wpt lat="41.484559" lon="-81.690778">
    <ele>200.000</ele>
    <time>2025-09-29T18:25:51Z</time>
    <name>29-Sep 2:25p</name>
    <desc />
  </wpt>
  <wpt lat="41.485054" lon="-81.690432">
    <ele>202.000</ele>
    <time>2025-09-29T18:27:08Z</time>
    <name>29-Sep 2:27p</name>
    <desc />
  </wpt>
  <wpt lat="41.484636" lon="-81.687831">
    <ele>200.000</ele>
    <time>2025-09-29T18:29:22Z</time>
    <name>29-Sep 2:29p</name>
    <desc />
  </wpt>
  <wpt lat="41.484506" lon="-81.686986">
    <ele>200.000</ele>
    <time>2025-09-29T18:30:28Z</time>
    <name>29-Sep 2:30p</name>
    <desc />
  </wpt>
  <wpt lat="41.484593" lon="-81.684008">
    <ele>191.200</ele>
    <time>2025-09-29T18:31:51Z</time>
    <name>29-Sep 2:31p</name>
    <desc />
  </wpt>
  <wpt lat="41.484447" lon="-81.683134">
    <ele>191.400</ele>
    <time>2025-09-29T18:32:47Z</time>
    <name>29-Sep 2:32p</name>
    <desc />
  </wpt>
  <wpt lat="41.484447" lon="-81.683134">
    <ele>191.400</ele>
    <time>2025-09-29T18:32:53Z</time>
    <name>29-Sep 2:32p</name>
    <desc />
  </wpt>
  <wpt lat="41.484447" lon="-81.683134">
    <ele>191.400</ele>
    <time>2025-09-29T18:32:58Z</time>
    <name>29-Sep 2:32p</name>
    <desc />
  </wpt>
  <wpt lat="41.482573" lon="-81.681380">
    <ele>192.000</ele>
    <time>2025-09-29T18:34:58Z</time>
    <name>29-Sep 2:34p</name>
    <desc />
  </wpt>
  <wpt lat="41.480619" lon="-81.679051">
    <ele>181.000</ele>
    <time>2025-09-29T18:36:15Z</time>
    <name>29-Sep 2:36p</name>
    <desc />
  </wpt>
  <wpt lat="41.478176" lon="-81.677250">
    <ele>178.400</ele>
    <time>2025-09-29T18:37:33Z</time>
    <name>29-Sep 2:37p</name>
    <desc />
  </wpt>
  <wpt lat="41.476869" lon="-81.677236">
    <ele>190.000</ele>
    <time>2025-09-29T18:39:39Z</time>
    <name>29-Sep 2:39p</name>
    <desc />
  </wpt>
  <wpt lat="41.475890" lon="-81.678215">
    <ele>193.400</ele>
    <time>2025-09-29T18:41:14Z</time>
    <name>29-Sep 2:41p</name>
    <desc />
  </wpt>
  <wpt lat="41.475890" lon="-81.678215">
    <ele>193.400</ele>
    <time>2025-09-29T18:41:21Z</time>
    <name>29-Sep 2:41p</name>
    <desc />
  </wpt>
  <wpt lat="41.475653" lon="-81.677981">
    <ele>194.000</ele>
    <time>2025-09-29T18:41:56Z</time>
    <name>29-Sep 2:41p</name>
    <desc />
  </wpt>
  <wpt lat="41.475728" lon="-81.678181">
    <ele>193.400</ele>
    <time>2025-09-29T18:42:50Z</time>
    <name>29-Sep 2:42p</name>
    <desc />
  </wpt>
  <wpt lat="41.475182" lon="-81.678557">
    <ele>189.799</ele>
    <time>2025-09-29T18:43:43Z</time>
    <name>29-Sep 2:43p</name>
    <desc />
  </wpt>
  <wpt lat="41.474866" lon="-81.681132">
    <ele>180.400</ele>
    <time>2025-09-29T18:44:42Z</time>
    <name>29-Sep 2:44p</name>
    <desc />
  </wpt>
  <wpt lat="41.475690" lon="-81.681963">
    <ele>175.400</ele>
    <time>2025-09-29T18:45:38Z</time>
    <name>29-Sep 2:45p</name>
    <desc />
  </wpt>
  <wpt lat="41.474982" lon="-81.685903">
    <ele>176.799</ele>
    <time>2025-09-29T18:47:30Z</time>
    <name>29-Sep 2:47p</name>
    <desc />
  </wpt>
  <wpt lat="41.474187" lon="-81.687979">
    <ele>178.200</ele>
    <time>2025-09-29T18:49:00Z</time>
    <name>29-Sep 2:49p</name>
    <desc />
  </wpt>
  <wpt lat="41.471845" lon="-81.688111">
    <ele>180.400</ele>
    <time>2025-09-29T18:50:47Z</time>
    <name>29-Sep 2:50p</name>
    <desc />
  </wpt>
  <wpt lat="41.470704" lon="-81.686632">
    <ele>181.400</ele>
    <time>2025-09-29T18:52:07Z</time>
    <name>29-Sep 2:52p</name>
    <desc />
  </wpt>
  <wpt lat="41.470704" lon="-81.686632">
    <ele>181.400</ele>
    <time>2025-09-29T18:52:11Z</time>
    <name>29-Sep 2:52p</name>
    <desc />
  </wpt>
  <wpt lat="41.469124" lon="-81.686532">
    <ele>188.799</ele>
    <time>2025-09-29T18:53:50Z</time>
    <name>29-Sep 2:53p</name>
    <desc />
  </wpt>
  <wpt lat="41.467021" lon="-81.686429">
    <ele>183.000</ele>
    <time>2025-09-29T18:55:18Z</time>
    <name>29-Sep 2:55p</name>
    <desc />
  </wpt>
  <wpt lat="41.466045" lon="-81.686831">
    <ele>179.799</ele>
    <time>2025-09-29T18:56:13Z</time>
    <name>29-Sep 2:56p</name>
    <desc />
  </wpt>
  <wpt lat="41.465255" lon="-81.685659">
    <ele>180.799</ele>
    <time>2025-09-29T18:57:21Z</time>
    <name>29-Sep 2:57p</name>
    <desc />
  </wpt>
  <wpt lat="41.462641" lon="-81.687141">
    <ele>177.200</ele>
    <time>2025-09-29T18:59:19Z</time>
    <name>29-Sep 2:59p</name>
    <desc />
  </wpt>
  <wpt lat="41.457633" lon="-81.688180">
    <ele>182.400</ele>
    <time>2025-09-29T19:02:30Z</time>
    <name>29-Sep 3:02p</name>
    <desc />
  </wpt>
</gpx>