<?xml version="1.0"?>
<gpx xmlns:xsd="http://www.w3.org/2001/XMLSchema" xmlns:xsi="http://www.w3.org/2001/XMLSchema-instance" xsi:schemaLocation="http://www.topografix.com/GPX/1/1 http://www.topografix.com/GPX/1/1/gpx.xsd" version="1.1" creator="http://www.delorme.com" xmlns="http://www.topografix.com/GPX/1/1">
  <wpt lat="41.503278" lon="-81.621571">
    <ele>298.599</ele>
    <time>2025-09-06T17:29:25Z</time>
    <name>Clev Clinic</name>
    <desc />
  </wpt>
  <wpt lat="41.503278" lon="-81.621557">
    <ele>263.000</ele>
    <time>2025-09-06T19:42:38Z</time>
    <name>06-Sep 3:42p</name>
    <desc />
  </wpt>
  <wpt lat="41.491008" lon="-81.738428">
    <ele>178.200</ele>
    <time>2025-09-06T20:21:20Z</time>
    <name>EdgeWATER</name>
    <desc />
  </wpt>
  <wpt lat="41.492975" lon="-81.723782">
    <ele>182.000</ele>
    <time>2025-09-06T23:52:41Z</time>
    <name>06-Sep 7:52p</name>
    <desc />
  </wpt>
  <wpt lat="41.494386" lon="-81.704024">
    <ele>185.400</ele>
    <time>2025-09-07T00:14:23Z</time>
    <name>06-Sep 8:14p</name>
    <desc />
  </wpt>
  <wpt lat="41.502815" lon="-81.621259">
    <ele>128.000</ele>
    <time>2025-09-07T16:30:42Z</time>
    <name>07-Sep 12:30p</name>
    <desc />
  </wpt>
  <wpt lat="41.491036" lon="-81.738355">
    <ele>184.000</ele>
    <time>2025-09-07T20:25:47Z</time>
    <name>07-Sep 4:25p</name>
    <desc />
  </wpt>
  <wpt lat="41.508131" lon="-81.605870">
    <ele>309.799</ele>
    <time>2025-09-08T13:23:40Z</time>
    <name>08-Sep 9:23a</name>
    <desc />
  </wpt>
  <wpt lat="41.506185" lon="-81.605341">
    <ele>245.200</ele>
    <time>2025-09-08T18:59:54Z</time>
    <name>08-Sep 2:59p</name>
    <desc />
  </wpt>
  <wpt lat="41.503756" lon="-81.629610">
    <ele>211.400</ele>
    <time>2025-09-08T19:14:22Z</time>
    <name>08-Sep 3:14p</name>
    <desc />
  </wpt>
  <wpt lat="41.478556" lon="-81.690283">
    <ele>0</ele>
    <time>2025-09-08T20:03:22Z</time>
    <name>08-Sep 4:03p</name>
    <desc />
  </wpt>
  <wpt lat="41.491132" lon="-81.738307">
    <ele>177.200</ele>
    <time>2025-09-09T22:28:25Z</time>
    <name>09-Sep 6:28p</name>
    <desc />
  </wpt>
  <wpt lat="41.473273" lon="-81.699074">
    <ele>197.799</ele>
    <time>2025-09-10T23:10:27Z</time>
    <name>10-Sep 7:10p</name>
    <desc />
  </wpt>
  <wpt lat="41.485122" lon="-81.690330">
    <ele>203.000</ele>
    <time>2025-09-10T23:30:46Z</time>
    <name>10-Sep 7:30p</name>
    <desc />
  </wpt>
  <wpt lat="41.495210" lon="-81.565336">
    <ele>298.799</ele>
    <time>2025-09-13T19:34:05Z</time>
    <name>13-Sep 3:34p</name>
    <desc />
  </wpt>
  <wpt lat="41.499853" lon="-81.537256">
    <ele>389.400</ele>
    <time>2025-09-13T22:47:02Z</time>
    <name>13-Sep 6:47p</name>
    <desc />
  </wpt>
  <wpt lat="41.491569" lon="-81.739074">
    <ele>179.400</ele>
    <time>2025-09-15T00:13:36Z</time>
    <name>14-Sep 8:13p</name>
    <desc />
  </wpt>
  <wpt lat="41.499344" lon="-81.716852">
    <ele>183.400</ele>
    <time>2025-09-26T23:14:35Z</time>
    <name>26-Sep 7:14p</name>
    <desc />
  </wpt>
  <wpt lat="41.495983" lon="-81.565296">
    <ele>312.799</ele>
    <time>2025-09-27T12:44:11Z</time>
    <name>27-Sep 8:44a</name>
    <desc />
  </wpt>
  <wpt lat="41.495951" lon="-81.565338">
    <ele>307.599</ele>
    <time>2025-09-27T12:46:11Z</time>
    <name>27-Sep 8:46a</name>
    <desc />
  </wpt>
  <wpt lat="41.495905" lon="-81.565362">
    <ele>304.200</ele>
    <time>2025-09-27T12:48:33Z</time>
    <name>27-Sep 8:48a</name>
    <desc />
  </wpt>
  <wpt lat="41.495897" lon="-81.565363">
    <ele>304.000</ele>
    <time>2025-09-27T12:48:42Z</time>
    <name>27-Sep 8:48a</name>
    <desc />
  </wpt>
  <wpt lat="41.495287" lon="-81.565370">
    <ele>298.000</ele>
    <time>2025-09-27T15:18:26Z</time>
    <name>27-Sep 11:18a</name>
    <desc />
  </wpt>
  <wpt lat="41.495258" lon="-81.565344">
    <ele>309.400</ele>
    <time>2025-09-27T15:38:59Z</time>
    <name>27-Sep 11:38a</name>
    <desc />
  </wpt>
  <wpt lat="41.495254" lon="-81.565331">
    <ele>308.799</ele>
    <time>2025-09-27T15:45:04Z</time>
    <name>27-Sep 11:45a</name>
    <desc />
  </wpt>
  <wpt lat="41.495284" lon="-81.565362">
    <ele>307.599</ele>
    <time>2025-09-27T15:50:23Z</time>
    <name>27-Sep 11:50a</name>
    <desc />
  </wpt>
  <wpt lat="41.495284" lon="-81.565370">
    <ele>297.200</ele>
    <time>2025-09-27T16:23:18Z</time>
    <name>27-Sep 12:23p</name>
    <desc />
  </wpt>
  <wpt lat="41.495292" lon="-81.565366">
    <ele>297.599</ele>
    <time>2025-09-27T16:23:36Z</time>
    <name>27-Sep 12:23p</name>
    <desc />
  </wpt>
  <wpt lat="41.495294" lon="-81.565361">
    <ele>297.000</ele>
    <time>2025-09-27T16:24:37Z</time>
    <name>27-Sep 12:24p</name>
    <desc />
  </wpt>
  <wpt lat="41.495798" lon="-81.565557">
    <ele>291.799</ele>
    <time>2025-09-27T17:14:08Z</time>
    <name>27-Sep 1:14p</name>
    <desc />
  </wpt>
  <wpt lat="41.496037" lon="-81.565242">
    <ele>290.000</ele>
    <time>2025-09-27T17:14:54Z</time>
    <name>27-Sep 1:14p</name>
    <desc />
  </wpt>
  <wpt lat="41.496646" lon="-81.565280">
    <ele>288.799</ele>
    <time>2025-09-27T17:16:13Z</time>
    <name>27-Sep 1:16p</name>
    <desc />
  </wpt>
  <wpt lat="41.496859" lon="-81.565258">
    <ele>290.400</ele>
    <time>2025-09-27T17:17:02Z</time>
    <name>27-Sep 1:17p</name>
    <desc />
  </wpt>
  <wpt lat="41.496137" lon="-81.565210">
    <ele>285.400</ele>
    <time>2025-09-27T17:18:22Z</time>
    <name>27-Sep 1:18p</name>
    <desc />
  </wpt>
  <wpt lat="41.495631" lon="-81.565542">
    <ele>285.200</ele>
    <time>2025-09-27T17:19:17Z</time>
    <name>27-Sep 1:19p</name>
    <desc />
  </wpt>
  <wpt lat="41.501250" lon="-81.594282">
    <ele>256.400</ele>
    <time>2025-09-27T18:45:16Z</time>
    <name>27-Sep 2:45p</name>
    <desc />
  </wpt>
  <wpt lat="41.501250" lon="-81.594282">
    <ele>256.400</ele>
    <time>2025-09-27T18:45:18Z</time>
    <name>27-Sep 2:45p</name>
    <desc />
  </wpt>
  <wpt lat="41.500447" lon="-81.605751">
    <ele>218.200</ele>
    <time>2025-09-27T19:36:32Z</time>
    <name>27-Sep 3:36p</name>
    <desc />
  </wpt>
  <wpt lat="41.489762" lon="-81.701457">
    <ele>171.400</ele>
    <time>2025-09-29T18:09:35Z</time>
    <name>29-Sep 2:09p</name>
    <desc />
  </wpt>
  <wpt lat="41.489841" lon="-81.701695">
    <ele>170.400</ele>
    <time>2025-09-29T18:11:01Z</time>
    <name>29-Sep 2:11p</name>
    <desc />
  </wpt>
  <wpt lat="41.489211" lon="-81.701614">
    <ele>170.599</ele>
    <time>2025-09-29T18:11:52Z</time>
    <name>29-Sep 2:11p</name>
    <desc />
  </wpt>
  <wpt lat="41.489044" lon="-81.700565">
    <ele>183.599</ele>
    <time>2025-09-29T18:13:20Z</time>
    <name>29-Sep 2:13p</name>
    <desc />
  </wpt>
  <wpt lat="41.487800" lon="-81.700582">
    <ele>170.799</ele>
    <time>2025-09-29T18:14:47Z</time>
    <name>29-Sep 2:14p</name>
    <desc />
  </wpt>
  <wpt lat="41.487805" lon="-81.699759">
    <ele>185.799</ele>
    <time>2025-09-29T18:16:21Z</time>
    <name>29-Sep 2:16p</name>
    <desc />
  </wpt>
  <wpt lat="41.488334" lon="-81.698277">
    <ele>183.799</ele>
    <time>2025-09-29T18:17:45Z</time>
    <name>29-Sep 2:17p</name>
    <desc />
  </wpt>
  <wpt lat="41.488307" lon="-81.696376">
    <ele>184.400</ele>
    <time>2025-09-29T18:18:50Z</time>
    <name>29-Sep 2:18p</name>
    <desc />
  </wpt>
  <wpt lat="41.487690" lon="-81.695091">
    <ele>191.200</ele>
    <time>2025-09-29T18:20:08Z</time>
    <name>29-Sep 2:20p</name>
    <desc />
  </wpt>
  <wpt lat="41.486618" lon="-81.693590">
    <ele>182.200</ele>
    <time>2025-09-29T18:21:25Z</time>
    <name>29-Sep 2:21p</name>
    <desc />
  </wpt>
  <wpt lat="41.486031" lon="-81.692316">
    <ele>184.000</ele>
    <time>2025-09-29T18:22:45Z</time>
    <name>29-Sep 2:22p</name>
    <desc />
  </wpt>
  <wpt lat="41.486031" lon="-81.692316">
    <ele>184.000</ele>
    <time>2025-09-29T18:22:53Z</time>
    <name>29-Sep 2:22p</name>
    <desc />
  </wpt>
  <wpt lat="41.484559" lon="-81.690778">
    <ele>200.000</ele>
    <time>2025-09-29T18:25:51Z</time>
    <name>29-Sep 2:25p</name>
    <desc />
  </wpt>
  <wpt lat="41.485054" lon="-81.690432">
    <ele>202.000</ele>
    <time>2025-09-29T18:27:08Z</time>
    <name>29-Sep 2:27p</name>
    <desc />
  </wpt>
  <wpt lat="41.484636" lon="-81.687831">
    <ele>200.000</ele>
    <time>2025-09-29T18:29:22Z</time>
    <name>29-Sep 2:29p</name>
    <desc />
  </wpt>
  <wpt lat="41.484506" lon="-81.686986">
    <ele>200.000</ele>
    <time>2025-09-29T18:30:28Z</time>
    <name>29-Sep 2:30p</name>
    <desc />
  </wpt>
  <wpt lat="41.484593" lon="-81.684008">
    <ele>191.200</ele>
    <time>2025-09-29T18:31:51Z</time>
    <name>29-Sep 2:31p</name>
    <desc />
  </wpt>
  <wpt lat="41.484447" lon="-81.683134">
    <ele>191.400</ele>
    <time>2025-09-29T18:32:47Z</time>
    <name>29-Sep 2:32p</name>
    <desc />
  </wpt>
  <wpt lat="41.484447" lon="-81.683134">
    <ele>191.400</ele>
    <time>2025-09-29T18:32:53Z</time>
    <name>29-Sep 2:32p</name>
    <desc />
  </wpt>
  <wpt lat="41.484447" lon="-81.683134">
    <ele>191.400</ele>
    <time>2025-09-29T18:32:58Z</time>
    <name>29-Sep 2:32p</name>
    <desc />
  </wpt>
  <wpt lat="41.482573" lon="-81.681380">
    <ele>192.000</ele>
    <time>2025-09-29T18:34:58Z</time>
    <name>29-Sep 2:34p</name>
    <desc />
  </wpt>
  <wpt lat="41.480619" lon="-81.679051">
    <ele>181.000</ele>
    <time>2025-09-29T18:36:15Z</time>
    <name>29-Sep 2:36p</name>
    <desc />
  </wpt>
  <wpt lat="41.478176" lon="-81.677250">
    <ele>178.400</ele>
    <time>2025-09-29T18:37:33Z</time>
    <name>29-Sep 2:37p</name>
    <desc />
  </wpt>
  <wpt lat="41.476869" lon="-81.677236">
    <ele>190.000</ele>
    <time>2025-09-29T18:39:39Z</time>
    <name>29-Sep 2:39p</name>
    <desc />
  </wpt>
  <wpt lat="41.475890" lon="-81.678215">
    <ele>193.400</ele>
    <time>2025-09-29T18:41:14Z</time>
    <name>29-Sep 2:41p</name>
    <desc />
  </wpt>
  <wpt lat="41.475890" lon="-81.678215">
    <ele>193.400</ele>
    <time>2025-09-29T18:41:21Z</time>
    <name>29-Sep 2:41p</name>
    <desc />
  </wpt>
  <wpt lat="41.475653" lon="-81.677981">
    <ele>194.000</ele>
    <time>2025-09-29T18:41:56Z</time>
    <name>29-Sep 2:41p</name>
    <desc />
  </wpt>
  <wpt lat="41.475728" lon="-81.678181">
    <ele>193.400</ele>
    <time>2025-09-29T18:42:50Z</time>
    <name>29-Sep 2:42p</name>
    <desc />
  </wpt>
  <wpt lat="41.475182" lon="-81.678557">
    <ele>189.799</ele>
    <time>2025-09-29T18:43:43Z</time>
    <name>29-Sep 2:43p</name>
    <desc />
  </wpt>
  <wpt lat="41.474866" lon="-81.681132">
    <ele>180.400</ele>
    <time>2025-09-29T18:44:42Z</time>
    <name>29-Sep 2:44p</name>
    <desc />
  </wpt>
  <wpt lat="41.475690" lon="-81.681963">
    <ele>175.400</ele>
    <time>2025-09-29T18:45:38Z</time>
    <name>29-Sep 2:45p</name>
    <desc />
  </wpt>
  <wpt lat="41.474982" lon="-81.685903">
    <ele>176.799</ele>
    <time>2025-09-29T18:47:30Z</time>
    <name>29-Sep 2:47p</name>
    <desc />
  </wpt>
  <wpt lat="41.474187" lon="-81.687979">
    <ele>178.200</ele>
    <time>2025-09-29T18:49:00Z</time>
    <name>29-Sep 2:49p</name>
    <desc />
  </wpt>
  <wpt lat="41.471845" lon="-81.688111">
    <ele>180.400</ele>
    <time>2025-09-29T18:50:47Z</time>
    <name>29-Sep 2:50p</name>
    <desc />
  </wpt>
  <wpt lat="41.470704" lon="-81.686632">
    <ele>181.400</ele>
    <time>2025-09-29T18:52:07Z</time>
    <name>29-Sep 2:52p</name>
    <desc />
  </wpt>
  <wpt lat="41.470704" lon="-81.686632">
    <ele>181.400</ele>
    <time>2025-09-29T18:52:11Z</time>
    <name>29-Sep 2:52p</name>
    <desc />
  </wpt>
  <wpt lat="41.469124" lon="-81.686532">
    <ele>188.799</ele>
    <time>2025-09-29T18:53:50Z</time>
    <name>29-Sep 2:53p</name>
    <desc />
  </wpt>
  <wpt lat="41.467021" lon="-81.686429">
    <ele>183.000</ele>
    <time>2025-09-29T18:55:18Z</time>
    <name>29-Sep 2:55p</name>
    <desc />
  </wpt>
  <wpt lat="41.466045" lon="-81.686831">
    <ele>179.799</ele>
    <time>2025-09-29T18:56:13Z</time>
    <name>29-Sep 2:56p</name>
    <desc />
  </wpt>
  <wpt lat="41.465255" lon="-81.685659">
    <ele>180.799</ele>
    <time>2025-09-29T18:57:21Z</time>
    <name>29-Sep 2:57p</name>
    <desc />
  </wpt>
  <wpt lat="41.462641" lon="-81.687141">
    <ele>177.200</ele>
    <time>2025-09-29T18:59:19Z</time>
    <name>29-Sep 2:59p</name>
    <desc />
  </wpt>
  <wpt lat="41.457633" lon="-81.688180">
    <ele>182.400</ele>
    <time>2025-09-29T19:02:30Z</time>
    <name>29-Sep 3:02p</name>
    <desc />
  </wpt>
</gpx>