<?xml version="1.0" encoding="UTF-8"?>
<kml xmlns="http://www.opengis.net/kml/2.2" xmlns:gx="http://www.google.com/kml/ext/2.2">
  <Document>
    <name>GPS device</name>
    <snippet>Created Thu Oct 9 21:47:12 2025 GMT</snippet>
    <LookAt>
      <gx:TimeSpan>
        <begin>2025-09-06T17:29:25Z</begin>
        <end>2025-09-29T19:02:30Z</end>
      </gx:TimeSpan>
      <longitude>-81.638165</longitude>
      <latitude>41.482882</latitude>
      <range>23068.034749</range>
    </LookAt>
    <!-- Normal waypoint style -->
    <Style id="waypoint_n">
      <IconStyle>
        <Icon>
          <href>https://maps.google.com/mapfiles/kml/pal4/icon61.png</href>
        </Icon>
      </IconStyle>
    </Style>
    <!-- Highlighted waypoint style -->
    <Style id="waypoint_h">
      <IconStyle>
        <scale>1.2</scale>
        <Icon>
          <href>https://maps.google.com/mapfiles/kml/pal4/icon61.png</href>
        </Icon>
      </IconStyle>
    </Style>
    <StyleMap id="waypoint">
      <Pair>
        <key>normal</key>
        <styleUrl>#waypoint_n</styleUrl>
      </Pair>
      <Pair>
        <key>highlight</key>
        <styleUrl>#waypoint_h</styleUrl>
      </Pair>
    </StyleMap>
    <Folder>
      <name>Waypoints</name>
      <Placemark>
        <name>Clev Clinic</name>
        <TimeStamp>
          <when>2025-09-06T17:29:25Z</when>
        </TimeStamp>
        <styleUrl>#waypoint</styleUrl>
        <Point>
          <coordinates>-81.621571,41.503278,298.60</coordinates>
        </Point>
      </Placemark>
      <Placemark>
        <name>06-Sep 3:42p</name>
        <TimeStamp>
          <when>2025-09-06T19:42:38Z</when>
        </TimeStamp>
        <styleUrl>#waypoint</styleUrl>
        <Point>
          <coordinates>-81.621557,41.503278,263.00</coordinates>
        </Point>
      </Placemark>
      <Placemark>
        <name>EdgeWATER</name>
        <TimeStamp>
          <when>2025-09-06T20:21:20Z</when>
        </TimeStamp>
        <styleUrl>#waypoint</styleUrl>
        <Point>
          <coordinates>-81.738428,41.491008,178.20</coordinates>
        </Point>
      </Placemark>
      <Placemark>
        <name>06-Sep 7:52p</name>
        <TimeStamp>
          <when>2025-09-06T23:52:41Z</when>
        </TimeStamp>
        <styleUrl>#waypoint</styleUrl>
        <Point>
          <coordinates>-81.723782,41.492975,182.00</coordinates>
        </Point>
      </Placemark>
      <Placemark>
        <name>06-Sep 8:14p</name>
        <TimeStamp>
          <when>2025-09-07T00:14:23Z</when>
        </TimeStamp>
        <styleUrl>#waypoint</styleUrl>
        <Point>
          <coordinates>-81.704024,41.494386,185.40</coordinates>
        </Point>
      </Placemark>
      <Placemark>
        <name>07-Sep 12:30p</name>
        <TimeStamp>
          <when>2025-09-07T16:30:42Z</when>
        </TimeStamp>
        <styleUrl>#waypoint</styleUrl>
        <Point>
          <coordinates>-81.621259,41.502815,128.00</coordinates>
        </Point>
      </Placemark>
      <Placemark>
        <name>07-Sep 4:25p</name>
        <TimeStamp>
          <when>2025-09-07T20:25:47Z</when>
        </TimeStamp>
        <styleUrl>#waypoint</styleUrl>
        <Point>
          <coordinates>-81.738355,41.491036,184.00</coordinates>
        </Point>
      </Placemark>
      <Placemark>
        <name>08-Sep 9:23a</name>
        <TimeStamp>
          <when>2025-09-08T13:23:40Z</when>
        </TimeStamp>
        <styleUrl>#waypoint</styleUrl>
        <Point>
          <coordinates>-81.605870,41.508131,309.80</coordinates>
        </Point>
      </Placemark>
      <Placemark>
        <name>08-Sep 2:59p</name>
        <TimeStamp>
          <when>2025-09-08T18:59:54Z</when>
        </TimeStamp>
        <styleUrl>#waypoint</styleUrl>
        <Point>
          <coordinates>-81.605341,41.506185,245.20</coordinates>
        </Point>
      </Placemark>
      <Placemark>
        <name>08-Sep 3:14p</name>
        <TimeStamp>
          <when>2025-09-08T19:14:22Z</when>
        </TimeStamp>
        <styleUrl>#waypoint</styleUrl>
        <Point>
          <coordinates>-81.629610,41.503756,211.40</coordinates>
        </Point>
      </Placemark>
      <Placemark>
        <name>08-Sep 4:03p</name>
        <TimeStamp>
          <when>2025-09-08T20:03:22Z</when>
        </TimeStamp>
        <styleUrl>#waypoint</styleUrl>
        <Point>
          <coordinates>-81.690283,41.478556</coordinates>
        </Point>
      </Placemark>
      <Placemark>
        <name>09-Sep 6:28p</name>
        <TimeStamp>
          <when>2025-09-09T22:28:25Z</when>
        </TimeStamp>
        <styleUrl>#waypoint</styleUrl>
        <Point>
          <coordinates>-81.738307,41.491132,177.20</coordinates>
        </Point>
      </Placemark>
      <Placemark>
        <name>10-Sep 7:10p</name>
        <TimeStamp>
          <when>2025-09-10T23:10:27Z</when>
        </TimeStamp>
        <styleUrl>#waypoint</styleUrl>
        <Point>
          <coordinates>-81.699074,41.473273,197.80</coordinates>
        </Point>
      </Placemark>
      <Placemark>
        <name>10-Sep 7:30p</name>
        <TimeStamp>
          <when>2025-09-10T23:30:46Z</when>
        </TimeStamp>
        <styleUrl>#waypoint</styleUrl>
        <Point>
          <coordinates>-81.690330,41.485122,203.00</coordinates>
        </Point>
      </Placemark>
      <Placemark>
        <name>13-Sep 3:34p</name>
        <TimeStamp>
          <when>2025-09-13T19:34:05Z</when>
        </TimeStamp>
        <styleUrl>#waypoint</styleUrl>
        <Point>
          <coordinates>-81.565336,41.495210,298.80</coordinates>
        </Point>
      </Placemark>
      <Placemark>
        <name>13-Sep 6:47p</name>
        <TimeStamp>
          <when>2025-09-13T22:47:02Z</when>
        </TimeStamp>
        <styleUrl>#waypoint</styleUrl>
        <Point>
          <coordinates>-81.537256,41.499853,389.40</coordinates>
        </Point>
      </Placemark>
      <Placemark>
        <name>14-Sep 8:13p</name>
        <TimeStamp>
          <when>2025-09-15T00:13:36Z</when>
        </TimeStamp>
        <styleUrl>#waypoint</styleUrl>
        <Point>
          <coordinates>-81.739074,41.491569,179.40</coordinates>
        </Point>
      </Placemark>
      <Placemark>
        <name>26-Sep 7:14p</name>
        <TimeStamp>
          <when>2025-09-26T23:14:35Z</when>
        </TimeStamp>
        <styleUrl>#waypoint</styleUrl>
        <Point>
          <coordinates>-81.716852,41.499344,183.40</coordinates>
        </Point>
      </Placemark>
      <Placemark>
        <name>27-Sep 8:44a</name>
        <TimeStamp>
          <when>2025-09-27T12:44:11Z</when>
        </TimeStamp>
        <styleUrl>#waypoint</styleUrl>
        <Point>
          <coordinates>-81.565296,41.495983,312.80</coordinates>
        </Point>
      </Placemark>
      <Placemark>
        <name>27-Sep 8:46a</name>
        <TimeStamp>
          <when>2025-09-27T12:46:11Z</when>
        </TimeStamp>
        <styleUrl>#waypoint</styleUrl>
        <Point>
          <coordinates>-81.565338,41.495951,307.60</coordinates>
        </Point>
      </Placemark>
      <Placemark>
        <name>27-Sep 8:48a</name>
        <TimeStamp>
          <when>2025-09-27T12:48:33Z</when>
        </TimeStamp>
        <styleUrl>#waypoint</styleUrl>
        <Point>
          <coordinates>-81.565362,41.495905,304.20</coordinates>
        </Point>
      </Placemark>
      <Placemark>
        <name>27-Sep 8:48a</name>
        <TimeStamp>
          <when>2025-09-27T12:48:42Z</when>
        </TimeStamp>
        <styleUrl>#waypoint</styleUrl>
        <Point>
          <coordinates>-81.565363,41.495897,304.00</coordinates>
        </Point>
      </Placemark>
      <Placemark>
        <name>27-Sep 11:18a</name>
        <TimeStamp>
          <when>2025-09-27T15:18:26Z</when>
        </TimeStamp>
        <styleUrl>#waypoint</styleUrl>
        <Point>
          <coordinates>-81.565370,41.495287,298.00</coordinates>
        </Point>
      </Placemark>
      <Placemark>
        <name>27-Sep 11:38a</name>
        <TimeStamp>
          <when>2025-09-27T15:38:59Z</when>
        </TimeStamp>
        <styleUrl>#waypoint</styleUrl>
        <Point>
          <coordinates>-81.565344,41.495258,309.40</coordinates>
        </Point>
      </Placemark>
      <Placemark>
        <name>27-Sep 11:45a</name>
        <TimeStamp>
          <when>2025-09-27T15:45:04Z</when>
        </TimeStamp>
        <styleUrl>#waypoint</styleUrl>
        <Point>
          <coordinates>-81.565331,41.495254,308.80</coordinates>
        </Point>
      </Placemark>
      <Placemark>
        <name>27-Sep 11:50a</name>
        <TimeStamp>
          <when>2025-09-27T15:50:23Z</when>
        </TimeStamp>
        <styleUrl>#waypoint</styleUrl>
        <Point>
          <coordinates>-81.565362,41.495284,307.60</coordinates>
        </Point>
      </Placemark>
      <Placemark>
        <name>27-Sep 12:23p</name>
        <TimeStamp>
          <when>2025-09-27T16:23:18Z</when>
        </TimeStamp>
        <styleUrl>#waypoint</styleUrl>
        <Point>
          <coordinates>-81.565370,41.495284,297.20</coordinates>
        </Point>
      </Placemark>
      <Placemark>
        <name>27-Sep 12:23p</name>
        <TimeStamp>
          <when>2025-09-27T16:23:36Z</when>
        </TimeStamp>
        <styleUrl>#waypoint</styleUrl>
        <Point>
          <coordinates>-81.565366,41.495292,297.60</coordinates>
        </Point>
      </Placemark>
      <Placemark>
        <name>27-Sep 12:24p</name>
        <TimeStamp>
          <when>2025-09-27T16:24:37Z</when>
        </TimeStamp>
        <styleUrl>#waypoint</styleUrl>
        <Point>
          <coordinates>-81.565361,41.495294,297.00</coordinates>
        </Point>
      </Placemark>
      <Placemark>
        <name>27-Sep 1:14p</name>
        <TimeStamp>
          <when>2025-09-27T17:14:08Z</when>
        </TimeStamp>
        <styleUrl>#waypoint</styleUrl>
        <Point>
          <coordinates>-81.565557,41.495798,291.80</coordinates>
        </Point>
      </Placemark>
      <Placemark>
        <name>27-Sep 1:14p</name>
        <TimeStamp>
          <when>2025-09-27T17:14:54Z</when>
        </TimeStamp>
        <styleUrl>#waypoint</styleUrl>
        <Point>
          <coordinates>-81.565242,41.496037,290.00</coordinates>
        </Point>
      </Placemark>
      <Placemark>
        <name>27-Sep 1:16p</name>
        <TimeStamp>
          <when>2025-09-27T17:16:13Z</when>
        </TimeStamp>
        <styleUrl>#waypoint</styleUrl>
        <Point>
          <coordinates>-81.565280,41.496646,288.80</coordinates>
        </Point>
      </Placemark>
      <Placemark>
        <name>27-Sep 1:17p</name>
        <TimeStamp>
          <when>2025-09-27T17:17:02Z</when>
        </TimeStamp>
        <styleUrl>#waypoint</styleUrl>
        <Point>
          <coordinates>-81.565258,41.496859,290.40</coordinates>
        </Point>
      </Placemark>
      <Placemark>
        <name>27-Sep 1:18p</name>
        <TimeStamp>
          <when>2025-09-27T17:18:22Z</when>
        </TimeStamp>
        <styleUrl>#waypoint</styleUrl>
        <Point>
          <coordinates>-81.565210,41.496137,285.40</coordinates>
        </Point>
      </Placemark>
      <Placemark>
        <name>27-Sep 1:19p</name>
        <TimeStamp>
          <when>2025-09-27T17:19:17Z</when>
        </TimeStamp>
        <styleUrl>#waypoint</styleUrl>
        <Point>
          <coordinates>-81.565542,41.495631,285.20</coordinates>
        </Point>
      </Placemark>
      <Placemark>
        <name>27-Sep 2:45p</name>
        <TimeStamp>
          <when>2025-09-27T18:45:16Z</when>
        </TimeStamp>
        <styleUrl>#waypoint</styleUrl>
        <Point>
          <coordinates>-81.594282,41.501250,256.40</coordinates>
        </Point>
      </Placemark>
      <Placemark>
        <name>27-Sep 2:45p</name>
        <TimeStamp>
          <when>2025-09-27T18:45:18Z</when>
        </TimeStamp>
        <styleUrl>#waypoint</styleUrl>
        <Point>
          <coordinates>-81.594282,41.501250,256.40</coordinates>
        </Point>
      </Placemark>
      <Placemark>
        <name>27-Sep 3:36p</name>
        <TimeStamp>
          <when>2025-09-27T19:36:32Z</when>
        </TimeStamp>
        <styleUrl>#waypoint</styleUrl>
        <Point>
          <coordinates>-81.605751,41.500447,218.20</coordinates>
        </Point>
      </Placemark>
      <Placemark>
        <name>29-Sep 2:09p</name>
        <TimeStamp>
          <when>2025-09-29T18:09:35Z</when>
        </TimeStamp>
        <styleUrl>#waypoint</styleUrl>
        <Point>
          <coordinates>-81.701457,41.489762,171.40</coordinates>
        </Point>
      </Placemark>
      <Placemark>
        <name>29-Sep 2:11p</name>
        <TimeStamp>
          <when>2025-09-29T18:11:01Z</when>
        </TimeStamp>
        <styleUrl>#waypoint</styleUrl>
        <Point>
          <coordinates>-81.701695,41.489841,170.40</coordinates>
        </Point>
      </Placemark>
      <Placemark>
        <name>29-Sep 2:11p</name>
        <TimeStamp>
          <when>2025-09-29T18:11:52Z</when>
        </TimeStamp>
        <styleUrl>#waypoint</styleUrl>
        <Point>
          <coordinates>-81.701614,41.489211,170.60</coordinates>
        </Point>
      </Placemark>
      <Placemark>
        <name>29-Sep 2:13p</name>
        <TimeStamp>
          <when>2025-09-29T18:13:20Z</when>
        </TimeStamp>
        <styleUrl>#waypoint</styleUrl>
        <Point>
          <coordinates>-81.700565,41.489044,183.60</coordinates>
        </Point>
      </Placemark>
      <Placemark>
        <name>29-Sep 2:14p</name>
        <TimeStamp>
          <when>2025-09-29T18:14:47Z</when>
        </TimeStamp>
        <styleUrl>#waypoint</styleUrl>
        <Point>
          <coordinates>-81.700582,41.487800,170.80</coordinates>
        </Point>
      </Placemark>
      <Placemark>
        <name>29-Sep 2:16p</name>
        <TimeStamp>
          <when>2025-09-29T18:16:21Z</when>
        </TimeStamp>
        <styleUrl>#waypoint</styleUrl>
        <Point>
          <coordinates>-81.699759,41.487805,185.80</coordinates>
        </Point>
      </Placemark>
      <Placemark>
        <name>29-Sep 2:17p</name>
        <TimeStamp>
          <when>2025-09-29T18:17:45Z</when>
        </TimeStamp>
        <styleUrl>#waypoint</styleUrl>
        <Point>
          <coordinates>-81.698277,41.488334,183.80</coordinates>
        </Point>
      </Placemark>
      <Placemark>
        <name>29-Sep 2:18p</name>
        <TimeStamp>
          <when>2025-09-29T18:18:50Z</when>
        </TimeStamp>
        <styleUrl>#waypoint</styleUrl>
        <Point>
          <coordinates>-81.696376,41.488307,184.40</coordinates>
        </Point>
      </Placemark>
      <Placemark>
        <name>29-Sep 2:20p</name>
        <TimeStamp>
          <when>2025-09-29T18:20:08Z</when>
        </TimeStamp>
        <styleUrl>#waypoint</styleUrl>
        <Point>
          <coordinates>-81.695091,41.487690,191.20</coordinates>
        </Point>
      </Placemark>
      <Placemark>
        <name>29-Sep 2:21p</name>
        <TimeStamp>
          <when>2025-09-29T18:21:25Z</when>
        </TimeStamp>
        <styleUrl>#waypoint</styleUrl>
        <Point>
          <coordinates>-81.693590,41.486618,182.20</coordinates>
        </Point>
      </Placemark>
      <Placemark>
        <name>29-Sep 2:22p</name>
        <TimeStamp>
          <when>2025-09-29T18:22:45Z</when>
        </TimeStamp>
        <styleUrl>#waypoint</styleUrl>
        <Point>
          <coordinates>-81.692316,41.486031,184.00</coordinates>
        </Point>
      </Placemark>
      <Placemark>
        <name>29-Sep 2:22p</name>
        <TimeStamp>
          <when>2025-09-29T18:22:53Z</when>
        </TimeStamp>
        <styleUrl>#waypoint</styleUrl>
        <Point>
          <coordinates>-81.692316,41.486031,184.00</coordinates>
        </Point>
      </Placemark>
      <Placemark>
        <name>29-Sep 2:25p</name>
        <TimeStamp>
          <when>2025-09-29T18:25:51Z</when>
        </TimeStamp>
        <styleUrl>#waypoint</styleUrl>
        <Point>
          <coordinates>-81.690778,41.484559,200.00</coordinates>
        </Point>
      </Placemark>
      <Placemark>
        <name>29-Sep 2:27p</name>
        <TimeStamp>
          <when>2025-09-29T18:27:08Z</when>
        </TimeStamp>
        <styleUrl>#waypoint</styleUrl>
        <Point>
          <coordinates>-81.690432,41.485054,202.00</coordinates>
        </Point>
      </Placemark>
      <Placemark>
        <name>29-Sep 2:29p</name>
        <TimeStamp>
          <when>2025-09-29T18:29:22Z</when>
        </TimeStamp>
        <styleUrl>#waypoint</styleUrl>
        <Point>
          <coordinates>-81.687831,41.484636,200.00</coordinates>
        </Point>
      </Placemark>
      <Placemark>
        <name>29-Sep 2:30p</name>
        <TimeStamp>
          <when>2025-09-29T18:30:28Z</when>
        </TimeStamp>
        <styleUrl>#waypoint</styleUrl>
        <Point>
          <coordinates>-81.686986,41.484506,200.00</coordinates>
        </Point>
      </Placemark>
      <Placemark>
        <name>29-Sep 2:31p</name>
        <TimeStamp>
          <when>2025-09-29T18:31:51Z</when>
        </TimeStamp>
        <styleUrl>#waypoint</styleUrl>
        <Point>
          <coordinates>-81.684008,41.484593,191.20</coordinates>
        </Point>
      </Placemark>
      <Placemark>
        <name>29-Sep 2:32p</name>
        <TimeStamp>
          <when>2025-09-29T18:32:47Z</when>
        </TimeStamp>
        <styleUrl>#waypoint</styleUrl>
        <Point>
          <coordinates>-81.683134,41.484447,191.40</coordinates>
        </Point>
      </Placemark>
      <Placemark>
        <name>29-Sep 2:32p</name>
        <TimeStamp>
          <when>2025-09-29T18:32:53Z</when>
        </TimeStamp>
        <styleUrl>#waypoint</styleUrl>
        <Point>
          <coordinates>-81.683134,41.484447,191.40</coordinates>
        </Point>
      </Placemark>
      <Placemark>
        <name>29-Sep 2:32p</name>
        <TimeStamp>
          <when>2025-09-29T18:32:58Z</when>
        </TimeStamp>
        <styleUrl>#waypoint</styleUrl>
        <Point>
          <coordinates>-81.683134,41.484447,191.40</coordinates>
        </Point>
      </Placemark>
      <Placemark>
        <name>29-Sep 2:34p</name>
        <TimeStamp>
          <when>2025-09-29T18:34:58Z</when>
        </TimeStamp>
        <styleUrl>#waypoint</styleUrl>
        <Point>
          <coordinates>-81.681380,41.482573,192.00</coordinates>
        </Point>
      </Placemark>
      <Placemark>
        <name>29-Sep 2:36p</name>
        <TimeStamp>
          <when>2025-09-29T18:36:15Z</when>
        </TimeStamp>
        <styleUrl>#waypoint</styleUrl>
        <Point>
          <coordinates>-81.679051,41.480619,181.00</coordinates>
        </Point>
      </Placemark>
      <Placemark>
        <name>29-Sep 2:37p</name>
        <TimeStamp>
          <when>2025-09-29T18:37:33Z</when>
        </TimeStamp>
        <styleUrl>#waypoint</styleUrl>
        <Point>
          <coordinates>-81.677250,41.478176,178.40</coordinates>
        </Point>
      </Placemark>
      <Placemark>
        <name>29-Sep 2:39p</name>
        <TimeStamp>
          <when>2025-09-29T18:39:39Z</when>
        </TimeStamp>
        <styleUrl>#waypoint</styleUrl>
        <Point>
          <coordinates>-81.677236,41.476869,190.00</coordinates>
        </Point>
      </Placemark>
      <Placemark>
        <name>29-Sep 2:41p</name>
        <TimeStamp>
          <when>2025-09-29T18:41:14Z</when>
        </TimeStamp>
        <styleUrl>#waypoint</styleUrl>
        <Point>
          <coordinates>-81.678215,41.475890,193.40</coordinates>
        </Point>
      </Placemark>
      <Placemark>
        <name>29-Sep 2:41p</name>
        <TimeStamp>
          <when>2025-09-29T18:41:21Z</when>
        </TimeStamp>
        <styleUrl>#waypoint</styleUrl>
        <Point>
          <coordinates>-81.678215,41.475890,193.40</coordinates>
        </Point>
      </Placemark>
      <Placemark>
        <name>29-Sep 2:41p</name>
        <TimeStamp>
          <when>2025-09-29T18:41:56Z</when>
        </TimeStamp>
        <styleUrl>#waypoint</styleUrl>
        <Point>
          <coordinates>-81.677981,41.475653,194.00</coordinates>
        </Point>
      </Placemark>
      <Placemark>
        <name>29-Sep 2:42p</name>
        <TimeStamp>
          <when>2025-09-29T18:42:50Z</when>
        </TimeStamp>
        <styleUrl>#waypoint</styleUrl>
        <Point>
          <coordinates>-81.678181,41.475728,193.40</coordinates>
        </Point>
      </Placemark>
      <Placemark>
        <name>29-Sep 2:43p</name>
        <TimeStamp>
          <when>2025-09-29T18:43:43Z</when>
        </TimeStamp>
        <styleUrl>#waypoint</styleUrl>
        <Point>
          <coordinates>-81.678557,41.475182,189.80</coordinates>
        </Point>
      </Placemark>
      <Placemark>
        <name>29-Sep 2:44p</name>
        <TimeStamp>
          <when>2025-09-29T18:44:42Z</when>
        </TimeStamp>
        <styleUrl>#waypoint</styleUrl>
        <Point>
          <coordinates>-81.681132,41.474866,180.40</coordinates>
        </Point>
      </Placemark>
      <Placemark>
        <name>29-Sep 2:45p</name>
        <TimeStamp>
          <when>2025-09-29T18:45:38Z</when>
        </TimeStamp>
        <styleUrl>#waypoint</styleUrl>
        <Point>
          <coordinates>-81.681963,41.475690,175.40</coordinates>
        </Point>
      </Placemark>
      <Placemark>
        <name>29-Sep 2:47p</name>
        <TimeStamp>
          <when>2025-09-29T18:47:30Z</when>
        </TimeStamp>
        <styleUrl>#waypoint</styleUrl>
        <Point>
          <coordinates>-81.685903,41.474982,176.80</coordinates>
        </Point>
      </Placemark>
      <Placemark>
        <name>29-Sep 2:49p</name>
        <TimeStamp>
          <when>2025-09-29T18:49:00Z</when>
        </TimeStamp>
        <styleUrl>#waypoint</styleUrl>
        <Point>
          <coordinates>-81.687979,41.474187,178.20</coordinates>
        </Point>
      </Placemark>
      <Placemark>
        <name>29-Sep 2:50p</name>
        <TimeStamp>
          <when>2025-09-29T18:50:47Z</when>
        </TimeStamp>
        <styleUrl>#waypoint</styleUrl>
        <Point>
          <coordinates>-81.688111,41.471845,180.40</coordinates>
        </Point>
      </Placemark>
      <Placemark>
        <name>29-Sep 2:52p</name>
        <TimeStamp>
          <when>2025-09-29T18:52:07Z</when>
        </TimeStamp>
        <styleUrl>#waypoint</styleUrl>
        <Point>
          <coordinates>-81.686632,41.470704,181.40</coordinates>
        </Point>
      </Placemark>
      <Placemark>
        <name>29-Sep 2:52p</name>
        <TimeStamp>
          <when>2025-09-29T18:52:11Z</when>
        </TimeStamp>
        <styleUrl>#waypoint</styleUrl>
        <Point>
          <coordinates>-81.686632,41.470704,181.40</coordinates>
        </Point>
      </Placemark>
      <Placemark>
        <name>29-Sep 2:53p</name>
        <TimeStamp>
          <when>2025-09-29T18:53:50Z</when>
        </TimeStamp>
        <styleUrl>#waypoint</styleUrl>
        <Point>
          <coordinates>-81.686532,41.469124,188.80</coordinates>
        </Point>
      </Placemark>
      <Placemark>
        <name>29-Sep 2:55p</name>
        <TimeStamp>
          <when>2025-09-29T18:55:18Z</when>
        </TimeStamp>
        <styleUrl>#waypoint</styleUrl>
        <Point>
          <coordinates>-81.686429,41.467021,183.00</coordinates>
        </Point>
      </Placemark>
      <Placemark>
        <name>29-Sep 2:56p</name>
        <TimeStamp>
          <when>2025-09-29T18:56:13Z</when>
        </TimeStamp>
        <styleUrl>#waypoint</styleUrl>
        <Point>
          <coordinates>-81.686831,41.466045,179.80</coordinates>
        </Point>
      </Placemark>
      <Placemark>
        <name>29-Sep 2:57p</name>
        <TimeStamp>
          <when>2025-09-29T18:57:21Z</when>
        </TimeStamp>
        <styleUrl>#waypoint</styleUrl>
        <Point>
          <coordinates>-81.685659,41.465255,180.80</coordinates>
        </Point>
      </Placemark>
      <Placemark>
        <name>29-Sep 2:59p</name>
        <TimeStamp>
          <when>2025-09-29T18:59:19Z</when>
        </TimeStamp>
        <styleUrl>#waypoint</styleUrl>
        <Point>
          <coordinates>-81.687141,41.462641,177.20</coordinates>
        </Point>
      </Placemark>
      <Placemark>
        <name>29-Sep 3:02p</name>
        <TimeStamp>
          <when>2025-09-29T19:02:30Z</when>
        </TimeStamp>
        <styleUrl>#waypoint</styleUrl>
        <Point>
          <coordinates>-81.688180,41.457633,182.40</coordinates>
        </Point>
      </Placemark>
    </Folder>
  </Document>
</kml>
