<?xml version="1.0" encoding="UTF-8"?>
<kml xmlns="http://www.opengis.net/kml/2.2" xmlns:gx="http://www.google.com/kml/ext/2.2">
  <Document>
    <name>GPS device</name>
    <snippet>Created Sat Oct 11 21:26:38 2025 GMT</snippet>
    <LookAt>
      <gx:TimeSpan>
        <begin>2025-10-11T19:40:47.227Z</begin>
        <end>2025-10-11T21:00:15Z</end>
      </gx:TimeSpan>
      <longitude>-81.652875</longitude>
      <latitude>41.479157</latitude>
      <range>12283.153449</range>
    </LookAt>
    <!-- Normal waypoint style -->
    <Style id="waypoint_n">
      <IconStyle>
        <Icon>
          <href>https://maps.google.com/mapfiles/kml/pal4/icon61.png</href>
        </Icon>
      </IconStyle>
    </Style>
    <!-- Highlighted waypoint style -->
    <Style id="waypoint_h">
      <IconStyle>
        <scale>1.2</scale>
        <Icon>
          <href>https://maps.google.com/mapfiles/kml/pal4/icon61.png</href>
        </Icon>
      </IconStyle>
    </Style>
    <StyleMap id="waypoint">
      <Pair>
        <key>normal</key>
        <styleUrl>#waypoint_n</styleUrl>
      </Pair>
      <Pair>
        <key>highlight</key>
        <styleUrl>#waypoint_h</styleUrl>
      </Pair>
    </StyleMap>
    <Folder>
      <name>Waypoints</name>
      <Placemark>
        <name>29-Sep 3:02p</name>
        <TimeStamp>
          <when>2025-10-11T19:40:47.227Z</when>
        </TimeStamp>
        <styleUrl>#waypoint</styleUrl>
        <Point>
          <coordinates>-81.688180,41.457633</coordinates>
        </Point>
      </Placemark>
      <Placemark>
        <name>29-Sep 2:59p</name>
        <TimeStamp>
          <when>2025-10-11T19:40:47.227Z</when>
        </TimeStamp>
        <styleUrl>#waypoint</styleUrl>
        <Point>
          <coordinates>-81.687141,41.462641</coordinates>
        </Point>
      </Placemark>
      <Placemark>
        <name>29-Sep 2:57p</name>
        <TimeStamp>
          <when>2025-10-11T19:40:47.227Z</when>
        </TimeStamp>
        <styleUrl>#waypoint</styleUrl>
        <Point>
          <coordinates>-81.685659,41.465255</coordinates>
        </Point>
      </Placemark>
      <Placemark>
        <name>29-Sep 2:56p</name>
        <TimeStamp>
          <when>2025-10-11T19:40:47.227Z</when>
        </TimeStamp>
        <styleUrl>#waypoint</styleUrl>
        <Point>
          <coordinates>-81.686831,41.466045</coordinates>
        </Point>
      </Placemark>
      <Placemark>
        <name>29-Sep 2:55p</name>
        <TimeStamp>
          <when>2025-10-11T19:40:47.227Z</when>
        </TimeStamp>
        <styleUrl>#waypoint</styleUrl>
        <Point>
          <coordinates>-81.686429,41.467021</coordinates>
        </Point>
      </Placemark>
      <Placemark>
        <name>29-Sep 2:53p</name>
        <TimeStamp>
          <when>2025-10-11T19:40:47.227Z</when>
        </TimeStamp>
        <styleUrl>#waypoint</styleUrl>
        <Point>
          <coordinates>-81.686532,41.469124</coordinates>
        </Point>
      </Placemark>
      <Placemark>
        <name>29-Sep 2:52p</name>
        <TimeStamp>
          <when>2025-10-11T19:40:47.227Z</when>
        </TimeStamp>
        <styleUrl>#waypoint</styleUrl>
        <Point>
          <coordinates>-81.686632,41.470704</coordinates>
        </Point>
      </Placemark>
      <Placemark>
        <name>29-Sep 2:52p</name>
        <TimeStamp>
          <when>2025-10-11T19:40:47.227Z</when>
        </TimeStamp>
        <styleUrl>#waypoint</styleUrl>
        <Point>
          <coordinates>-81.686632,41.470704</coordinates>
        </Point>
      </Placemark>
      <Placemark>
        <name>29-Sep 2:50p</name>
        <TimeStamp>
          <when>2025-10-11T19:40:47.227Z</when>
        </TimeStamp>
        <styleUrl>#waypoint</styleUrl>
        <Point>
          <coordinates>-81.688111,41.471845</coordinates>
        </Point>
      </Placemark>
      <Placemark>
        <name>29-Sep 2:49p</name>
        <TimeStamp>
          <when>2025-10-11T19:40:47.227Z</when>
        </TimeStamp>
        <styleUrl>#waypoint</styleUrl>
        <Point>
          <coordinates>-81.687979,41.474187</coordinates>
        </Point>
      </Placemark>
      <Placemark>
        <name>29-Sep 2:47p</name>
        <TimeStamp>
          <when>2025-10-11T19:40:47.227Z</when>
        </TimeStamp>
        <styleUrl>#waypoint</styleUrl>
        <Point>
          <coordinates>-81.685903,41.474982</coordinates>
        </Point>
      </Placemark>
      <Placemark>
        <name>29-Sep 2:45p</name>
        <TimeStamp>
          <when>2025-10-11T19:40:47.227Z</when>
        </TimeStamp>
        <styleUrl>#waypoint</styleUrl>
        <Point>
          <coordinates>-81.681963,41.475690</coordinates>
        </Point>
      </Placemark>
      <Placemark>
        <name>29-Sep 2:44p</name>
        <TimeStamp>
          <when>2025-10-11T19:40:47.227Z</when>
        </TimeStamp>
        <styleUrl>#waypoint</styleUrl>
        <Point>
          <coordinates>-81.681132,41.474866</coordinates>
        </Point>
      </Placemark>
      <Placemark>
        <name>29-Sep 2:43p</name>
        <TimeStamp>
          <when>2025-10-11T19:40:47.227Z</when>
        </TimeStamp>
        <styleUrl>#waypoint</styleUrl>
        <Point>
          <coordinates>-81.678557,41.475182</coordinates>
        </Point>
      </Placemark>
      <Placemark>
        <name>29-Sep 2:42p</name>
        <TimeStamp>
          <when>2025-10-11T19:40:47.227Z</when>
        </TimeStamp>
        <styleUrl>#waypoint</styleUrl>
        <Point>
          <coordinates>-81.678181,41.475728</coordinates>
        </Point>
      </Placemark>
      <Placemark>
        <name>29-Sep 2:41p</name>
        <TimeStamp>
          <when>2025-10-11T19:40:47.227Z</when>
        </TimeStamp>
        <styleUrl>#waypoint</styleUrl>
        <Point>
          <coordinates>-81.677981,41.475653</coordinates>
        </Point>
      </Placemark>
      <Placemark>
        <name>29-Sep 2:41p</name>
        <TimeStamp>
          <when>2025-10-11T19:40:47.227Z</when>
        </TimeStamp>
        <styleUrl>#waypoint</styleUrl>
        <Point>
          <coordinates>-81.678215,41.475890</coordinates>
        </Point>
      </Placemark>
      <Placemark>
        <name>29-Sep 2:41p</name>
        <TimeStamp>
          <when>2025-10-11T19:40:47.227Z</when>
        </TimeStamp>
        <styleUrl>#waypoint</styleUrl>
        <Point>
          <coordinates>-81.678215,41.475890</coordinates>
        </Point>
      </Placemark>
      <Placemark>
        <name>29-Sep 2:39p</name>
        <TimeStamp>
          <when>2025-10-11T19:40:47.227Z</when>
        </TimeStamp>
        <styleUrl>#waypoint</styleUrl>
        <Point>
          <coordinates>-81.677236,41.476869</coordinates>
        </Point>
      </Placemark>
      <Placemark>
        <name>29-Sep 2:37p</name>
        <TimeStamp>
          <when>2025-10-11T19:40:47.227Z</when>
        </TimeStamp>
        <styleUrl>#waypoint</styleUrl>
        <Point>
          <coordinates>-81.677250,41.478176</coordinates>
        </Point>
      </Placemark>
      <Placemark>
        <name>29-Sep 2:36p</name>
        <TimeStamp>
          <when>2025-10-11T19:40:47.227Z</when>
        </TimeStamp>
        <styleUrl>#waypoint</styleUrl>
        <Point>
          <coordinates>-81.679051,41.480619</coordinates>
        </Point>
      </Placemark>
      <Placemark>
        <name>29-Sep 2:34p</name>
        <TimeStamp>
          <when>2025-10-11T19:40:47.227Z</when>
        </TimeStamp>
        <styleUrl>#waypoint</styleUrl>
        <Point>
          <coordinates>-81.681380,41.482573</coordinates>
        </Point>
      </Placemark>
      <Placemark>
        <name>29-Sep 2:32p</name>
        <TimeStamp>
          <when>2025-10-11T19:40:47.227Z</when>
        </TimeStamp>
        <styleUrl>#waypoint</styleUrl>
        <Point>
          <coordinates>-81.683134,41.484447</coordinates>
        </Point>
      </Placemark>
      <Placemark>
        <name>29-Sep 2:32p</name>
        <TimeStamp>
          <when>2025-10-11T19:40:47.227Z</when>
        </TimeStamp>
        <styleUrl>#waypoint</styleUrl>
        <Point>
          <coordinates>-81.683134,41.484447</coordinates>
        </Point>
      </Placemark>
      <Placemark>
        <name>29-Sep 2:32p</name>
        <TimeStamp>
          <when>2025-10-11T19:40:47.227Z</when>
        </TimeStamp>
        <styleUrl>#waypoint</styleUrl>
        <Point>
          <coordinates>-81.683134,41.484447</coordinates>
        </Point>
      </Placemark>
      <Placemark>
        <name>29-Sep 2:31p</name>
        <TimeStamp>
          <when>2025-10-11T19:40:47.227Z</when>
        </TimeStamp>
        <styleUrl>#waypoint</styleUrl>
        <Point>
          <coordinates>-81.684008,41.484593</coordinates>
        </Point>
      </Placemark>
      <Placemark>
        <name>29-Sep 2:30p</name>
        <TimeStamp>
          <when>2025-10-11T19:40:47.227Z</when>
        </TimeStamp>
        <styleUrl>#waypoint</styleUrl>
        <Point>
          <coordinates>-81.686986,41.484506</coordinates>
        </Point>
      </Placemark>
      <Placemark>
        <name>29-Sep 2:29p</name>
        <TimeStamp>
          <when>2025-10-11T19:40:47.227Z</when>
        </TimeStamp>
        <styleUrl>#waypoint</styleUrl>
        <Point>
          <coordinates>-81.687831,41.484636</coordinates>
        </Point>
      </Placemark>
      <Placemark>
        <name>29-Sep 2:27p</name>
        <TimeStamp>
          <when>2025-10-11T19:40:47.227Z</when>
        </TimeStamp>
        <styleUrl>#waypoint</styleUrl>
        <Point>
          <coordinates>-81.690432,41.485054</coordinates>
        </Point>
      </Placemark>
      <Placemark>
        <name>29-Sep 2:25p</name>
        <TimeStamp>
          <when>2025-10-11T19:40:47.227Z</when>
        </TimeStamp>
        <styleUrl>#waypoint</styleUrl>
        <Point>
          <coordinates>-81.690778,41.484559</coordinates>
        </Point>
      </Placemark>
      <Placemark>
        <name>29-Sep 2:22p</name>
        <TimeStamp>
          <when>2025-10-11T19:40:47.227Z</when>
        </TimeStamp>
        <styleUrl>#waypoint</styleUrl>
        <Point>
          <coordinates>-81.692316,41.486031</coordinates>
        </Point>
      </Placemark>
      <Placemark>
        <name>29-Sep 2:22p</name>
        <TimeStamp>
          <when>2025-10-11T19:40:47.227Z</when>
        </TimeStamp>
        <styleUrl>#waypoint</styleUrl>
        <Point>
          <coordinates>-81.692316,41.486031</coordinates>
        </Point>
      </Placemark>
      <Placemark>
        <name>29-Sep 2:21p</name>
        <TimeStamp>
          <when>2025-10-11T19:40:47.227Z</when>
        </TimeStamp>
        <styleUrl>#waypoint</styleUrl>
        <Point>
          <coordinates>-81.693590,41.486618</coordinates>
        </Point>
      </Placemark>
      <Placemark>
        <name>29-Sep 2:20p</name>
        <TimeStamp>
          <when>2025-10-11T19:40:47.227Z</when>
        </TimeStamp>
        <styleUrl>#waypoint</styleUrl>
        <Point>
          <coordinates>-81.695091,41.487690</coordinates>
        </Point>
      </Placemark>
      <Placemark>
        <name>29-Sep 2:18p</name>
        <TimeStamp>
          <when>2025-10-11T19:40:47.227Z</when>
        </TimeStamp>
        <styleUrl>#waypoint</styleUrl>
        <Point>
          <coordinates>-81.696376,41.488307</coordinates>
        </Point>
      </Placemark>
      <Placemark>
        <name>29-Sep 2:17p</name>
        <TimeStamp>
          <when>2025-10-11T19:40:47.227Z</when>
        </TimeStamp>
        <styleUrl>#waypoint</styleUrl>
        <Point>
          <coordinates>-81.698277,41.488334</coordinates>
        </Point>
      </Placemark>
      <Placemark>
        <name>29-Sep 2:16p</name>
        <TimeStamp>
          <when>2025-10-11T19:40:47.227Z</when>
        </TimeStamp>
        <styleUrl>#waypoint</styleUrl>
        <Point>
          <coordinates>-81.699759,41.487805</coordinates>
        </Point>
      </Placemark>
      <Placemark>
        <name>29-Sep 2:14p</name>
        <TimeStamp>
          <when>2025-10-11T19:40:47.227Z</when>
        </TimeStamp>
        <styleUrl>#waypoint</styleUrl>
        <Point>
          <coordinates>-81.700582,41.487800</coordinates>
        </Point>
      </Placemark>
      <Placemark>
        <name>29-Sep 2:13p</name>
        <TimeStamp>
          <when>2025-10-11T19:40:47.227Z</when>
        </TimeStamp>
        <styleUrl>#waypoint</styleUrl>
        <Point>
          <coordinates>-81.700565,41.489044</coordinates>
        </Point>
      </Placemark>
      <Placemark>
        <name>29-Sep 2:11p</name>
        <TimeStamp>
          <when>2025-10-11T19:40:47.227Z</when>
        </TimeStamp>
        <styleUrl>#waypoint</styleUrl>
        <Point>
          <coordinates>-81.701614,41.489211</coordinates>
        </Point>
      </Placemark>
      <Placemark>
        <name>29-Sep 2:11p</name>
        <TimeStamp>
          <when>2025-10-11T19:40:47.227Z</when>
        </TimeStamp>
        <styleUrl>#waypoint</styleUrl>
        <Point>
          <coordinates>-81.701695,41.489841</coordinates>
        </Point>
      </Placemark>
      <Placemark>
        <name>29-Sep 2:09p</name>
        <TimeStamp>
          <when>2025-10-11T19:40:47.227Z</when>
        </TimeStamp>
        <styleUrl>#waypoint</styleUrl>
        <Point>
          <coordinates>-81.701457,41.489762</coordinates>
        </Point>
      </Placemark>
      <Placemark>
        <name>11-Oct 4:11p</name>
        <TimeStamp>
          <when>2025-10-11T20:11:41Z</when>
        </TimeStamp>
        <styleUrl>#waypoint</styleUrl>
        <Point>
          <coordinates>-81.605838,41.500427,185.80</coordinates>
        </Point>
      </Placemark>
      <Placemark>
        <name>11-Oct 4:12p</name>
        <TimeStamp>
          <when>2025-10-11T20:12:40Z</when>
        </TimeStamp>
        <styleUrl>#waypoint</styleUrl>
        <Point>
          <coordinates>-81.606094,41.500129,222.00</coordinates>
        </Point>
      </Placemark>
      <Placemark>
        <name>11-Oct 4:14p</name>
        <TimeStamp>
          <when>2025-10-11T20:14:29Z</when>
        </TimeStamp>
        <styleUrl>#waypoint</styleUrl>
        <Point>
          <coordinates>-81.604668,41.499940,226.20</coordinates>
        </Point>
      </Placemark>
      <Placemark>
        <name>11-Oct 4:32p</name>
        <TimeStamp>
          <when>2025-10-11T20:32:39Z</when>
        </TimeStamp>
        <styleUrl>#waypoint</styleUrl>
        <Point>
          <coordinates>-81.604571,41.499949,226.00</coordinates>
        </Point>
      </Placemark>
      <Placemark>
        <name>11-Oct 4:34p</name>
        <TimeStamp>
          <when>2025-10-11T20:34:08Z</when>
        </TimeStamp>
        <styleUrl>#waypoint</styleUrl>
        <Point>
          <coordinates>-81.604055,41.499909,226.40</coordinates>
        </Point>
      </Placemark>
      <Placemark>
        <name>11-Oct 4:35p</name>
        <TimeStamp>
          <when>2025-10-11T20:35:00Z</when>
        </TimeStamp>
        <styleUrl>#waypoint</styleUrl>
        <Point>
          <coordinates>-81.604981,41.499932,220.60</coordinates>
        </Point>
      </Placemark>
      <Placemark>
        <name>11-Oct 4:36p</name>
        <TimeStamp>
          <when>2025-10-11T20:36:22Z</when>
        </TimeStamp>
        <styleUrl>#waypoint</styleUrl>
        <Point>
          <coordinates>-81.605749,41.500166,217.00</coordinates>
        </Point>
      </Placemark>
      <Placemark>
        <name>11-Oct 5:00p</name>
        <TimeStamp>
          <when>2025-10-11T21:00:15Z</when>
        </TimeStamp>
        <styleUrl>#waypoint</styleUrl>
        <Point>
          <coordinates>-81.605741,41.500681,182.40</coordinates>
        </Point>
      </Placemark>
    </Folder>
  </Document>
</kml>
