<?xml version="1.0"?>
<gpx xmlns:xsd="http://www.w3.org/2001/XMLSchema" xmlns:xsi="http://www.w3.org/2001/XMLSchema-instance" xsi:schemaLocation="http://www.topografix.com/GPX/1/1 http://www.topografix.com/GPX/1/1/gpx.xsd" version="1.1" creator="http://www.delorme.com" xmlns="http://www.topografix.com/GPX/1/1">
  <wpt lat="41.457633" lon="-81.688180">
    <ele>0</ele>
    <time>2025-10-11T19:40:47.2266063Z</time>
    <name>29-Sep 3:02p</name>
    <desc />
  </wpt>
  <wpt lat="41.462641" lon="-81.687141">
    <ele>0</ele>
    <time>2025-10-11T19:40:47.2266063Z</time>
    <name>29-Sep 2:59p</name>
    <desc />
  </wpt>
  <wpt lat="41.465255" lon="-81.685659">
    <ele>0</ele>
    <time>2025-10-11T19:40:47.2266063Z</time>
    <name>29-Sep 2:57p</name>
    <desc />
  </wpt>
  <wpt lat="41.466045" lon="-81.686831">
    <ele>0</ele>
    <time>2025-10-11T19:40:47.2266063Z</time>
    <name>29-Sep 2:56p</name>
    <desc />
  </wpt>
  <wpt lat="41.467021" lon="-81.686429">
    <ele>0</ele>
    <time>2025-10-11T19:40:47.2266063Z</time>
    <name>29-Sep 2:55p</name>
    <desc />
  </wpt>
  <wpt lat="41.469124" lon="-81.686532">
    <ele>0</ele>
    <time>2025-10-11T19:40:47.2266063Z</time>
    <name>29-Sep 2:53p</name>
    <desc />
  </wpt>
  <wpt lat="41.470704" lon="-81.686632">
    <ele>0</ele>
    <time>2025-10-11T19:40:47.2266063Z</time>
    <name>29-Sep 2:52p</name>
    <desc />
  </wpt>
  <wpt lat="41.470704" lon="-81.686632">
    <ele>0</ele>
    <time>2025-10-11T19:40:47.2266063Z</time>
    <name>29-Sep 2:52p</name>
    <desc />
  </wpt>
  <wpt lat="41.471845" lon="-81.688111">
    <ele>0</ele>
    <time>2025-10-11T19:40:47.2266063Z</time>
    <name>29-Sep 2:50p</name>
    <desc />
  </wpt>
  <wpt lat="41.474187" lon="-81.687979">
    <ele>0</ele>
    <time>2025-10-11T19:40:47.2266063Z</time>
    <name>29-Sep 2:49p</name>
    <desc />
  </wpt>
  <wpt lat="41.474982" lon="-81.685903">
    <ele>0</ele>
    <time>2025-10-11T19:40:47.2266063Z</time>
    <name>29-Sep 2:47p</name>
    <desc />
  </wpt>
  <wpt lat="41.475690" lon="-81.681963">
    <ele>0</ele>
    <time>2025-10-11T19:40:47.2266063Z</time>
    <name>29-Sep 2:45p</name>
    <desc />
  </wpt>
  <wpt lat="41.474866" lon="-81.681132">
    <ele>0</ele>
    <time>2025-10-11T19:40:47.2266063Z</time>
    <name>29-Sep 2:44p</name>
    <desc />
  </wpt>
  <wpt lat="41.475182" lon="-81.678557">
    <ele>0</ele>
    <time>2025-10-11T19:40:47.2266063Z</time>
    <name>29-Sep 2:43p</name>
    <desc />
  </wpt>
  <wpt lat="41.475728" lon="-81.678181">
    <ele>0</ele>
    <time>2025-10-11T19:40:47.2266063Z</time>
    <name>29-Sep 2:42p</name>
    <desc />
  </wpt>
  <wpt lat="41.475653" lon="-81.677981">
    <ele>0</ele>
    <time>2025-10-11T19:40:47.2266063Z</time>
    <name>29-Sep 2:41p</name>
    <desc />
  </wpt>
  <wpt lat="41.475890" lon="-81.678215">
    <ele>0</ele>
    <time>2025-10-11T19:40:47.2266063Z</time>
    <name>29-Sep 2:41p</name>
    <desc />
  </wpt>
  <wpt lat="41.475890" lon="-81.678215">
    <ele>0</ele>
    <time>2025-10-11T19:40:47.2266063Z</time>
    <name>29-Sep 2:41p</name>
    <desc />
  </wpt>
  <wpt lat="41.476869" lon="-81.677236">
    <ele>0</ele>
    <time>2025-10-11T19:40:47.2266063Z</time>
    <name>29-Sep 2:39p</name>
    <desc />
  </wpt>
  <wpt lat="41.478176" lon="-81.677250">
    <ele>0</ele>
    <time>2025-10-11T19:40:47.2266063Z</time>
    <name>29-Sep 2:37p</name>
    <desc />
  </wpt>
  <wpt lat="41.480619" lon="-81.679051">
    <ele>0</ele>
    <time>2025-10-11T19:40:47.2266063Z</time>
    <name>29-Sep 2:36p</name>
    <desc />
  </wpt>
  <wpt lat="41.482573" lon="-81.681380">
    <ele>0</ele>
    <time>2025-10-11T19:40:47.2266063Z</time>
    <name>29-Sep 2:34p</name>
    <desc />
  </wpt>
  <wpt lat="41.484447" lon="-81.683134">
    <ele>0</ele>
    <time>2025-10-11T19:40:47.2266063Z</time>
    <name>29-Sep 2:32p</name>
    <desc />
  </wpt>
  <wpt lat="41.484447" lon="-81.683134">
    <ele>0</ele>
    <time>2025-10-11T19:40:47.2266063Z</time>
    <name>29-Sep 2:32p</name>
    <desc />
  </wpt>
  <wpt lat="41.484447" lon="-81.683134">
    <ele>0</ele>
    <time>2025-10-11T19:40:47.2266063Z</time>
    <name>29-Sep 2:32p</name>
    <desc />
  </wpt>
  <wpt lat="41.484593" lon="-81.684008">
    <ele>0</ele>
    <time>2025-10-11T19:40:47.2266063Z</time>
    <name>29-Sep 2:31p</name>
    <desc />
  </wpt>
  <wpt lat="41.484506" lon="-81.686986">
    <ele>0</ele>
    <time>2025-10-11T19:40:47.2266063Z</time>
    <name>29-Sep 2:30p</name>
    <desc />
  </wpt>
  <wpt lat="41.484636" lon="-81.687831">
    <ele>0</ele>
    <time>2025-10-11T19:40:47.2266063Z</time>
    <name>29-Sep 2:29p</name>
    <desc />
  </wpt>
  <wpt lat="41.485054" lon="-81.690432">
    <ele>0</ele>
    <time>2025-10-11T19:40:47.2266063Z</time>
    <name>29-Sep 2:27p</name>
    <desc />
  </wpt>
  <wpt lat="41.484559" lon="-81.690778">
    <ele>0</ele>
    <time>2025-10-11T19:40:47.2266063Z</time>
    <name>29-Sep 2:25p</name>
    <desc />
  </wpt>
  <wpt lat="41.486031" lon="-81.692316">
    <ele>0</ele>
    <time>2025-10-11T19:40:47.2266063Z</time>
    <name>29-Sep 2:22p</name>
    <desc />
  </wpt>
  <wpt lat="41.486031" lon="-81.692316">
    <ele>0</ele>
    <time>2025-10-11T19:40:47.2266063Z</time>
    <name>29-Sep 2:22p</name>
    <desc />
  </wpt>
  <wpt lat="41.486618" lon="-81.693590">
    <ele>0</ele>
    <time>2025-10-11T19:40:47.2266063Z</time>
    <name>29-Sep 2:21p</name>
    <desc />
  </wpt>
  <wpt lat="41.487690" lon="-81.695091">
    <ele>0</ele>
    <time>2025-10-11T19:40:47.2266063Z</time>
    <name>29-Sep 2:20p</name>
    <desc />
  </wpt>
  <wpt lat="41.488307" lon="-81.696376">
    <ele>0</ele>
    <time>2025-10-11T19:40:47.2266063Z</time>
    <name>29-Sep 2:18p</name>
    <desc />
  </wpt>
  <wpt lat="41.488334" lon="-81.698277">
    <ele>0</ele>
    <time>2025-10-11T19:40:47.2266063Z</time>
    <name>29-Sep 2:17p</name>
    <desc />
  </wpt>
  <wpt lat="41.487805" lon="-81.699759">
    <ele>0</ele>
    <time>2025-10-11T19:40:47.2266063Z</time>
    <name>29-Sep 2:16p</name>
    <desc />
  </wpt>
  <wpt lat="41.487800" lon="-81.700582">
    <ele>0</ele>
    <time>2025-10-11T19:40:47.2266063Z</time>
    <name>29-Sep 2:14p</name>
    <desc />
  </wpt>
  <wpt lat="41.489044" lon="-81.700565">
    <ele>0</ele>
    <time>2025-10-11T19:40:47.2266063Z</time>
    <name>29-Sep 2:13p</name>
    <desc />
  </wpt>
  <wpt lat="41.489211" lon="-81.701614">
    <ele>0</ele>
    <time>2025-10-11T19:40:47.2266063Z</time>
    <name>29-Sep 2:11p</name>
    <desc />
  </wpt>
  <wpt lat="41.489841" lon="-81.701695">
    <ele>0</ele>
    <time>2025-10-11T19:40:47.2266063Z</time>
    <name>29-Sep 2:11p</name>
    <desc />
  </wpt>
  <wpt lat="41.489762" lon="-81.701457">
    <ele>0</ele>
    <time>2025-10-11T19:40:47.2266063Z</time>
    <name>29-Sep 2:09p</name>
    <desc />
  </wpt>
  <wpt lat="41.500427" lon="-81.605838">
    <ele>185.799</ele>
    <time>2025-10-11T20:11:41Z</time>
    <name>11-Oct 4:11p</name>
    <desc />
  </wpt>
  <wpt lat="41.500129" lon="-81.606094">
    <ele>222.000</ele>
    <time>2025-10-11T20:12:40Z</time>
    <name>11-Oct 4:12p</name>
    <desc />
  </wpt>
  <wpt lat="41.499940" lon="-81.604668">
    <ele>226.200</ele>
    <time>2025-10-11T20:14:29Z</time>
    <name>11-Oct 4:14p</name>
    <desc />
  </wpt>
  <wpt lat="41.499949" lon="-81.604571">
    <ele>226.000</ele>
    <time>2025-10-11T20:32:39Z</time>
    <name>11-Oct 4:32p</name>
    <desc />
  </wpt>
  <wpt lat="41.499909" lon="-81.604055">
    <ele>226.400</ele>
    <time>2025-10-11T20:34:08Z</time>
    <name>11-Oct 4:34p</name>
    <desc />
  </wpt>
  <wpt lat="41.499932" lon="-81.604981">
    <ele>220.599</ele>
    <time>2025-10-11T20:35:00Z</time>
    <name>11-Oct 4:35p</name>
    <desc />
  </wpt>
  <wpt lat="41.500166" lon="-81.605749">
    <ele>217.000</ele>
    <time>2025-10-11T20:36:22Z</time>
    <name>11-Oct 4:36p</name>
    <desc />
  </wpt>
  <wpt lat="41.500681" lon="-81.605741">
    <ele>182.400</ele>
    <time>2025-10-11T21:00:15Z</time>
    <name>11-Oct 5:00p</name>
    <desc />
  </wpt>
</gpx>